NORAD_CAT_ID,OBJECT_NAME,OBJECT_TYPE,EPOCH,MEAN_MOTION,ECCENTRICITY,INCLINATION,RA_OF_ASC_NODE,ARG_OF_PERICENTER,MEAN_ANOMALY,BSTAR,MEAN_MOTION_DOT,MEAN_MOTION_DDOT,TLE_LINE0,TLE_LINE1,TLE_LINE2,SEMIMAJOR_AXIS,PERIOD,APOGEE,PERIGEE,DECAYED
52540.0,STARLINK-3940,PAYLOAD,2023-07-26 17:08:10,15.08844708,0.0001019,53.216,105.1521,81.6542,278.4566,4.3206e-05,4e-06,0.0,0 STARLINK-3940,1 52540U 22051H   23207.71401316  .00000400  00000-0  43206-4 0  9996,2 52540  53.2160 105.1521 0001019  81.6542 278.4566 15.08844708 66978,6917.866,95.437,540.436,539.026,0.0
52540.0,STARLINK-3940,PAYLOAD,2023-07-27 02:40:28,15.08858798,0.0001093,53.216,103.3672,84.1956,275.9161,0.00026561,3.944e-05,0.0,0 STARLINK-3940,1 52540U 22051H   23208.11144304  .00003944  00000-0  26561-3 0  9992,2 52540  53.2160 103.3672 0001093  84.1956 275.9161 15.08858798 67107,6917.823,95.436,540.444,538.932,0.0
52540.0,STARLINK-3940,PAYLOAD,2023-07-27 21:45:07,15.08837501,0.0001062,53.2164,99.8027,95.8144,264.2969,2.3741e-05,9e-07,0.0,0 STARLINK-3940,1 52540U 22051H   23208.90633683  .00000090  00000-0  23741-4 0  9999,2 52540  53.2164  99.8027 0001062  95.8144 264.2969 15.08837501 67159,6917.888,95.438,540.488,539.018,0.0
52540.0,STARLINK-3940,PAYLOAD,2023-07-27 23:20:30,15.08837098,0.0001025,53.2158,99.5034,91.3168,268.7942,3.2222e-05,2.25e-06,0.0,0 STARLINK-3940,1 52540U 22051H   23208.97257716  .00000225  00000-0  32222-4 0  9999,2 52540  53.2158  99.5034 0001025  91.3168 268.7942 15.08837098 67233,6917.889,95.438,540.463,539.045,0.0
52540.0,STARLINK-3940,PAYLOAD,2023-07-28 23:11:17,15.08845319,0.0001163,53.2166,95.0421,94.3942,265.7183,0.00010318,1.355e-05,0.0,0 STARLINK-3940,1 52540U 22051H   23209.96617505  .00001355  00000-0  10318-3 0  9991,2 52540  53.2166  95.0421 0001163  94.3942 265.7183 15.08845319 67384,6917.864,95.437,540.534,538.925,0.0
52540.0,STARLINK-3940,PAYLOAD,2023-07-29 16:40:32,15.08842639,0.0001124,53.2166,91.772,97.6877,262.4243,0.00022333,3.268e-05,0.0,0 STARLINK-3940,1 52540U 22051H   23210.69481753  .00003268  00000-0  22333-3 0  9992,2 52540  53.2166  91.7720 0001124  97.6877 262.4243 15.08842639 67494,6917.872,95.437,540.515,538.96,0.0
52540.0,STARLINK-3940,PAYLOAD,2023-07-31 02:03:37,15.08848157,0.0001173,53.2163,85.5259,102.9591,257.1532,0.00013961,1.935e-05,0.0,0 STARLINK-3940,1 52540U 22051H   23212.08585264  .00001935  00000-0  13961-3 0  9995,2 52540  53.2163  85.5259 0001173 102.9591 257.1532 15.08848157 67703,6917.855,95.437,540.532,538.909,0.0
52540.0,STARLINK-3940,PAYLOAD,2023-08-01 01:54:25,15.08840182,0.0001443,53.2178,81.0651,92.368,267.7478,3.3269e-05,2.42e-06,0.0,0 STARLINK-3940,1 52540U 22051H   23213.07945828  .00000242  00000-0  33269-4 0  9995,2 52540  53.2178  81.0651 0001443  92.3680 267.7478 15.08840182 67859,6917.88,95.438,540.743,538.747,0.0
52540.0,STARLINK-3940,PAYLOAD,2023-08-02 08:06:45,15.0883871,0.0001158,53.2161,75.4139,88.5174,271.5951,0.00011265,1.505e-05,0.0,0 STARLINK-3940,1 52540U 22051H   23214.33802262  .00001505  00000-0  11265-3 0  9993,2 52540  53.2161  75.4139 0001158  88.5174 271.5951 15.08838710 68042,6917.884,95.438,540.55,538.948,0.0
52540.0,STARLINK-3940,PAYLOAD,2023-08-03 00:00:36,15.0884781,0.0001173,53.2161,72.4402,85.8033,274.3093,0.00029014,4.334e-05,0.0,0 STARLINK-3940,1 52540U 22051H   23215.00041976  .00004334  00000-0  29014-3 0  9999,2 52540  53.2161  72.4402 0001173  85.8033 274.3093 15.08847810 68143,6917.857,95.437,540.533,538.91,0.0
52540.0,STARLINK-3940,PAYLOAD,2023-08-03 19:05:14,15.0884038,0.0001506,53.2165,68.8714,69.291,290.8244,8.1142e-05,1.004e-05,0.0,0 STARLINK-3940,1 52540U 22051H   23215.79530568  .00001004  00000-0  81142-4 0  9997,2 52540  53.2165  68.8714 0001506  69.2910 290.8244 15.08840380 68261,6917.879,95.438,540.786,538.702,0.0
52540.0,STARLINK-3940,PAYLOAD,2023-08-04 22:06:47,15.08850303,0.0001097,53.2164,63.8146,96.5834,263.5283,0.00013083,1.796e-05,0.0,0 STARLINK-3940,1 52540U 22051H   23216.92137886  .00001796  00000-0  13083-3 0  9995,2 52540  53.2164  63.8146 0001097  96.5834 263.5283 15.08850303 68432,6917.849,95.437,540.473,538.955,0.0
52540.0,STARLINK-3940,PAYLOAD,2023-08-05 23:32:56,15.08853663,0.0001277,53.2173,59.0556,99.1709,260.9428,0.00025793,3.821e-05,0.0,0 STARLINK-3940,1 52540U 22051H   23217.98121404  .00003821  00000-0  25793-3 0  9993,2 52540  53.2173  59.0556 0001277  99.1709 260.9428 15.08853663 68595,6917.839,95.437,540.587,538.82,0.0
52540.0,STARLINK-3940,PAYLOAD,2023-08-06 20:12:59,15.08827627,0.0001006,53.2169,55.192,89.4634,270.6474,-0.0001235,-2.252e-05,0.0,0 STARLINK-3940,1 52540U 22051H   23218.84235142 -.00002252  00000-0 -12350-3 0  9998,2 52540  53.2169  55.1920 0001006  89.4634 270.6474 15.08827627 68726,6917.918,95.438,540.479,539.087,0.0
52540.0,STARLINK-3940,PAYLOAD,2023-08-07 20:03:46,15.08846137,9.23e-05,53.2168,50.7331,97.5963,262.5134,0.00048897,7.504e-05,0.0,0 STARLINK-3940,1 52540U 22051H   23219.83595033  .00007504  00000-0  48897-3 0  9994,2 52540  53.2168  50.7331 0000923  97.5963 262.5134 15.08846137 68870,6917.862,95.437,540.365,539.088,0.0
52540.0,STARLINK-3940,PAYLOAD,2023-08-08 13:33:00,15.08851696,0.000123,53.217,47.4619,88.0652,272.0481,0.00041528,6.33e-05,0.0,0 STARLINK-3940,1 52540U 22051H   23220.56458988  .00006330  00000-0  41528-3 0  9993,2 52540  53.2170  47.4619 0001230  88.0652 272.0481 15.08851696 68986,6917.845,95.437,540.561,538.859,0.0
52540.0,STARLINK-3940,PAYLOAD,2023-08-09 05:26:52,15.08842816,0.000235,53.2167,44.4884,86.7693,273.3568,0.00024181,3.563e-05,0.0,0 STARLINK-3940,1 52540U 22051H   23221.22699240  .00003563  00000-0  24181-3 0  9996,2 52540  53.2167  44.4884 0002350  86.7693 273.3568 15.08842816 69083,6917.872,95.437,541.362,538.111,0.0
52540.0,STARLINK-3940,PAYLOAD,2023-08-10 05:17:38,15.0884461,0.0001027,53.2176,40.0274,86.6303,273.4807,5.3095e-06,-2.03e-06,0.0,0 STARLINK-3940,1 52540U 22051H   23222.22058748 -.00000203  00000-0  53095-5 0  9996,2 52540  53.2176  40.0274 0001027  86.6303 273.4807 15.08844610 69233,6917.866,95.437,540.442,539.021,0.0
52540.0,STARLINK-3940,PAYLOAD,2023-08-11 17:51:31,15.0884294,9.93e-05,53.2175,33.1901,92.7126,267.398,0.0001401,1.943e-05,0.0,0 STARLINK-3940,1 52540U 22051H   23223.74410886  .00001943  00000-0  14010-3 0  9992,2 52540  53.2175  33.1901 0000993  92.7126 267.3980 15.08842940 69467,6917.871,95.437,540.423,539.049,0.0
52540.0,STARLINK-3940,PAYLOAD,2023-08-12 11:20:45,15.08837969,0.0001049,53.2162,29.9186,77.2543,282.8567,6.0578e-05,6.76e-06,0.0,0 STARLINK-3940,1 52540U 22051H   23224.47275208  .00000676  00000-0  60578-4 0  9993,2 52540  53.2162  29.9186 0001049  77.2543 282.8567 15.08837969 69575,6917.887,95.438,540.477,539.026,0.0
52540.0,STARLINK-3940,PAYLOAD,2023-08-13 17:33:05,15.08840476,8.87e-05,53.218,24.2684,84.08,276.0293,5.4379e-05,5.78e-06,0.0,0 STARLINK-3940,1 52540U 22051H   23225.73131296  .00000578  00000-0  54379-4 0  9994,2 52540  53.2180  24.2684 0000887  84.0800 276.0293 15.08840476 69766,6917.879,95.438,540.358,539.13,0.0
52540.0,STARLINK-3940,PAYLOAD,2023-08-15 10:53:06,15.08861492,9.77e-05,53.2186,16.5388,73.5033,286.6066,-0.00025565,-4.356e-05,0.0,0 STARLINK-3940,1 52540U 22051H   23227.45355095 -.00004356  00000-0 -25565-3 0  9994,2 52540  53.2186  16.5388 0000977  73.5033 286.6066 15.08861492 70025,6917.815,95.436,540.356,539.004,0.0
52540.0,STARLINK-3940,PAYLOAD,2023-08-15 17:14:39,15.08844249,0.0001026,53.2203,15.3494,90.842,269.269,0.0001291,1.768e-05,0.0,0 STARLINK-3940,1 52540U 22051H   23227.71851159  .00001768  00000-0  12910-3 0  9997,2 52540  53.2203  15.3494 0001026  90.8420 269.2690 15.08844249 70063,6917.867,95.437,540.442,539.023,0.0
52540.0,STARLINK-3940,PAYLOAD,2023-08-16 09:08:30,15.0884195,9.68e-05,53.22,12.3774,99.6691,260.4411,8.4615e-05,1.059e-05,0.0,0 STARLINK-3940,1 52540U 22051H   23228.38091385  .00001059  00000-0  84615-4 0  9993,2 52540  53.2200  12.3774 0000968  99.6691 260.4411 15.08841950 70160,6917.874,95.437,540.409,539.07,0.0
52540.0,STARLINK-3940,PAYLOAD,2023-08-18 02:28:33,15.08825841,0.0001495,53.2152,4.6414,84.8673,275.249,-3.7013e-05,-8.77e-06,0.0,0 STARLINK-3940,1 52540U 22051H   23230.10316604 -.00000877  00000-0 -37013-4 0  9999,2 52540  53.2152   4.6414 0001495  84.8673 275.2490 15.08825841 70424,6917.924,95.438,540.823,538.754,0.0
52540.0,STARLINK-3940,PAYLOAD,2023-08-18 18:22:23,15.08839329,9.85e-05,53.2139,1.6646,91.7819,268.3286,5.241e-05,5.46e-06,0.0,0 STARLINK-3940,1 52540U 22051H   23230.76555481  .00000546  00000-0  52410-4 0  9998,2 52540  53.2139   1.6646 0000985  91.7819 268.3286 15.08839329 70528,6917.882,95.438,540.429,539.066,0.0
52540.0,STARLINK-3940,PAYLOAD,2023-08-20 11:42:25,15.08841903,0.000138,53.2155,353.9368,82.5775,277.5374,0.00016554,2.348e-05,0.0,0 STARLINK-3940,1 52540U 22051H   23232.48779835  .00002348  00000-0  16554-3 0  9990,2 52540  53.2155 353.9368 0001380  82.5775 277.5374 15.08841903 70788,6917.875,95.437,540.694,538.785,0.0
52540.0,STARLINK-3940,PAYLOAD,2023-08-21 13:08:35,15.08841985,0.0001245,53.2197,349.1795,98.4461,261.6672,9.2789e-05,1.189e-05,0.0,0 STARLINK-3940,1 52540U 22051H   23233.54763801  .00001189  00000-0  92789-4 0  9991,2 52540  53.2197 349.1795 0001245  98.4461 261.6672 15.08841985 70946,6917.874,95.437,540.601,538.878,0.0
52540.0,STARLINK-3940,PAYLOAD,2023-08-22 11:24:00,15.08839461,0.0001154,53.2195,345.0179,94.6203,265.4921,1.9507e-05,2.3e-07,0.0,0 STARLINK-3940,1 52540U 22051H   23234.47500281  .00000023  00000-0  19507-4 0  9998,2 52540  53.2195 345.0179 0001154  94.6203 265.4921 15.08839461 71087,6917.882,95.438,540.545,538.949,0.0
52540.0,STARLINK-3940,PAYLOAD,2023-08-23 12:50:10,15.0884007,0.0001245,53.2195,340.2601,102.1173,257.9959,8.3981e-05,1.049e-05,0.0,0 STARLINK-3940,1 52540U 22051H   23235.53484292  .00001049  00000-0  83981-4 0  9995,2 52540  53.2195 340.2601 0001245 102.1173 257.9959 15.08840070 71249,6917.88,95.438,540.606,538.884,0.0
